SBFL	METAR	26/09/2025	METAR SBFL 260000Z 16003KT 9999 OVC046 17/11 Q1032=
SBFL	METAR	26/09/2025	METAR SBFL 260100Z 14003KT 9999 OVC046 17/10 Q1032=
SBFL	METAR	26/09/2025	METAR SBFL 260200Z 10005KT 9999 OVC046 17/10 Q1032=
SBFL	METAR	26/09/2025	METAR SBFL 260300Z 10007KT 9999 OVC046 17/10 Q1032=
SBFL	METAR	26/09/2025	METAR SBFL 260400Z 12004KT 9999 BKN046 17/10 Q1031=
SBFL	METAR	26/09/2025	METAR SBFL 260500Z 16003KT CAVOK 15/10 Q1030=
SBFL	METAR	26/09/2025	METAR SBFL 260600Z 22002KT CAVOK 14/11 Q1029=
SBFL	METAR	26/09/2025	METAR SBFL 260700Z 00000KT CAVOK 13/10 Q1029=
SBFL	METAR	26/09/2025	METAR SBFL 260800Z 00000KT CAVOK 11/09 Q1029=
SBFL	METAR	26/09/2025	METAR SBFL 260900Z VRB02KT 9999 FEW020 BKN050 13/11 Q1029=
SBFL	METAR	26/09/2025	METAR SBFL 261000Z 16002KT 9999 FEW020 BKN050 15/12 Q1029=
SBFL	METAR	26/09/2025	METAR SBFL 261100Z 07007KT 9999 FEW030 BKN043 17/10 Q1030=
SBFL	METAR	26/09/2025	METAR SBFL 261200Z 14003KT 9999 FEW030 BKN060 18/11 Q1030=
SBFL	METAR	26/09/2025	METAR SBFL 261300Z 14004KT 9999 FEW030 BKN060 18/11 Q1029=
SBFL	METAR	26/09/2025	METAR SBFL 261400Z 11010KT 9999 FEW036 BKN060 19/11 Q1029=
SBFL	METAR	26/09/2025	METAR SBFL 261500Z 08011KT 040V120 9999 SCT036 20/12 Q1028=
SBFL	METAR	26/09/2025	METAR SBFL 261600Z 08013KT 9999 BKN033 20/13 Q1027=
SBFL	METAR	26/09/2025	METAR SBFL 261700Z 06009KT 9999 BKN033 20/12 Q1026=
SBFL	METAR	26/09/2025	METAR SBFL 261800Z 05013KT 9999 BKN040 20/11 Q1025=
SBFL	METAR	26/09/2025	METAR SBFL 261900Z 04012KT 9999 BKN040 20/12 Q1025=
SBFL	METAR	26/09/2025	METAR SBFL 262000Z 08008KT 9999 SCT040 18/13 Q1025=
SBFL	METAR	26/09/2025	METAR SBFL 262100Z 05010KT 9999 3000SW SHRA BKN025 FEW030TCU 17/13 Q1026=
SBFL	METAR	26/09/2025	METAR SBFL 262200Z 00000KT 9999 BKN025 FEW030TCU 17/13 Q1026 RESHRA=
SBFL	METAR	26/09/2025	METAR SBFL 262300Z 07002KT 9999 FEW040 BKN070 17/12 Q1026=
